{
  "type": "FeatureCollection",
  "features": [
    {
      "type": "Feature",
      "properties": {
        "norad_id": 27954,
        "name": "GALAXY 13 (HORIZONS-1)",
        "group": "intelsat",
        "lat": -0.019021179762200326,
        "lon": 84.20765605506946,
        "alt_km": 35794.365478848005,
        "timestamp": "2025-12-02T10:50:46.940885+00:00",
        "meta_object_name": "GALAXY 13 (HORIZONS-1)",
        "meta_object_id": "2003-044A",
        "meta_epoch": "2025-12-02T02:47:56.126112",
        "meta_mean_motion": 1.00271949,
        "meta_eccentricity": 0.0002087,
        "meta_inclination": 0.9081,
        "meta_ra_of_asc_node": 86.5991,
        "meta_arg_of_pericenter": 158.6451,
        "meta_mean_anomaly": 77.9559,
        "meta_ephemeris_type": 0,
        "meta_classification_type": "U",
        "meta_norad_cat_id": 27954,
        "meta_element_set_no": 999,
        "meta_rev_at_epoch": 4459,
        "meta_bstar": 0,
        "meta_mean_motion_dot": 1.54e-06,
        "meta_mean_motion_ddot": 0,
        "tle_line1": "1 27954U 03044A   25336.11662183  .00000154  00000+0  00000+0 0  9993",
        "tle_line2": "2 27954   0.9081  86.5991 0002087 158.6451  77.9559  1.00271949 44599"
      },
      "geometry": {
        "type": "Point",
        "coordinates": [
          84.20765605506946,
          -0.019021179762200326
        ]
      }
    },
    {
      "type": "Feature",
      "properties": {
        "norad_id": 28358,
        "name": "INTELSAT 10-02",
        "group": "intelsat",
        "lat": -0.014960566338701183,
        "lon": -126.77474044265097,
        "alt_km": 35782.36901385675,
        "timestamp": "2025-12-02T10:50:46.940914+00:00",
        "meta_object_name": "INTELSAT 10-02",
        "meta_object_id": "2004-022A",
        "meta_epoch": "2025-12-02T03:30:27.320256",
        "meta_mean_motion": 1.0027242,
        "meta_eccentricity": 0.0001164,
        "meta_inclination": 0.0375,
        "meta_ra_of_asc_node": 83.6948,
        "meta_arg_of_pericenter": 193.9573,
        "meta_mean_anomaly": 205.2269,
        "meta_ephemeris_type": 0,
        "meta_classification_type": "U",
        "meta_norad_cat_id": 28358,
        "meta_element_set_no": 999,
        "meta_rev_at_epoch": 7858,
        "meta_bstar": 0,
        "meta_mean_motion_dot": 1e-07,
        "meta_mean_motion_ddot": 0,
        "tle_line1": "1 28358U 04022A   25336.14614954  .00000010  00000+0  00000+0 0  9996",
        "tle_line2": "2 28358   0.0375  83.6948 0001164 193.9573 205.2269  1.00272420 78582"
      },
      "geometry": {
        "type": "Point",
        "coordinates": [
          -126.77474044265097,
          -0.014960566338701183
        ]
      }
    },
    {
      "type": "Feature",
      "properties": {
        "norad_id": 28626,
        "name": "XM-3 (RHYTHM)",
        "group": "intelsat",
        "lat": -0.07200671438529455,
        "lon": 37.34259480399331,
        "alt_km": 36156.82540760379,
        "timestamp": "2025-12-02T10:50:46.940927+00:00",
        "meta_object_name": "XM-3 (RHYTHM)",
        "meta_object_id": "2005-008A",
        "meta_epoch": "2025-12-01T16:19:10.717824",
        "meta_mean_motion": 0.98955107,
        "meta_eccentricity": 8.38e-05,
        "meta_inclination": 0.1433,
        "meta_ra_of_asc_node": 80.6256,
        "meta_arg_of_pericenter": 270.4663,
        "meta_mean_anomaly": 131.2697,
        "meta_ephemeris_type": 0,
        "meta_classification_type": "U",
        "meta_norad_cat_id": 28626,
        "meta_element_set_no": 999,
        "meta_rev_at_epoch": 4064,
        "meta_bstar": 0,
        "meta_mean_motion_dot": -2.1e-06,
        "meta_mean_motion_ddot": 0,
        "tle_line1": "1 28626U 05008A   25335.67998516 -.00000210  00000+0  00000+0 0  9998",
        "tle_line2": "2 28626   0.1433  80.6256 0000838 270.4663 131.2697  0.98955107 40648"
      },
      "geometry": {
        "type": "Point",
        "coordinates": [
          37.34259480399331,
          -0.07200671438529455
        ]
      }
    },
    {
      "type": "Feature",
      "properties": {
        "norad_id": 28659,
        "name": "DIRECTV 8",
        "group": "intelsat",
        "lat": 0.002448470801560019,
        "lon": 115.16427468538696,
        "alt_km": 35797.17112352421,
        "timestamp": "2025-12-02T10:50:46.940939+00:00",
        "meta_object_name": "DIRECTV 8",
        "meta_object_id": "2005-019A",
        "meta_epoch": "2025-12-02T02:56:47.778144",
        "meta_mean_motion": 1.00271203,
        "meta_eccentricity": 0.0003224,
        "meta_inclination": 0.0133,
        "meta_ra_of_asc_node": 291.2172,
        "meta_arg_of_pericenter": 327.3089,
        "meta_mean_anomaly": 97.8685,
        "meta_ephemeris_type": 0,
        "meta_classification_type": "U",
        "meta_norad_cat_id": 28659,
        "meta_element_set_no": 999,
        "meta_rev_at_epoch": 7509,
        "meta_bstar": 0,
        "meta_mean_motion_dot": 2.2e-07,
        "meta_mean_motion_ddot": 0,
        "tle_line1": "1 28659U 05019A   25336.12277521  .00000022  00000+0  00000+0 0  9993",
        "tle_line2": "2 28659   0.0133 291.2172 0003224 327.3089  97.8685  1.00271203 75096"
      },
      "geometry": {
        "type": "Point",
        "coordinates": [
          115.16427468538696,
          0.002448470801560019
        ]
      }
    },
    {
      "type": "Feature",
      "properties": {
        "norad_id": 28702,
        "name": "GALAXY 28 (G-28)",
        "group": "intelsat",
        "lat": 2.508242027995213,
        "lon": 145.4580783468038,
        "alt_km": 35791.15351591204,
        "timestamp": "2025-12-02T10:50:46.940951+00:00",
        "meta_object_name": "GALAXY 28 (G-28)",
        "meta_object_id": "2005-022A",
        "meta_epoch": "2025-12-02T03:05:24.451872",
        "meta_mean_motion": 1.00270647,
        "meta_eccentricity": 0.000266,
        "meta_inclination": 2.7916,
        "meta_ra_of_asc_node": 81.4017,
        "meta_arg_of_pericenter": 180.9183,
        "meta_mean_anomaly": 126.5553,
        "meta_ephemeris_type": 0,
        "meta_classification_type": "U",
        "meta_norad_cat_id": 28702,
        "meta_element_set_no": 999,
        "meta_rev_at_epoch": 4999,
        "meta_bstar": 0,
        "meta_mean_motion_dot": -1.66e-06,
        "meta_mean_motion_ddot": 0,
        "tle_line1": "1 28702U 05022A   25336.12875523 -.00000166  00000+0  00000+0 0  9992",
        "tle_line2": "2 28702   2.7916  81.4017 0002660 180.9183 126.5553  1.00270647 49996"
      },
      "geometry": {
        "type": "Point",
        "coordinates": [
          145.4580783468038,
          2.508242027995213
        ]
      }
    },
    {
      "type": "Feature",
      "properties": {
        "norad_id": 29236,
        "name": "GALAXY 16 (G-16)",
        "group": "intelsat",
        "lat": -0.020600003774315725,
        "lon": 135.18811877730494,
        "alt_km": 35791.89652495086,
        "timestamp": "2025-12-02T10:50:46.940963+00:00",
        "meta_object_name": "GALAXY 16 (G-16)",
        "meta_object_id": "2006-023A",
        "meta_epoch": "2025-12-02T03:02:24.739008",
        "meta_mean_motion": 1.00270302,
        "meta_eccentricity": 0.000284,
        "meta_inclination": 0.0261,
        "meta_ra_of_asc_node": 223.3727,
        "meta_arg_of_pericenter": 28.4644,
        "meta_mean_anomaly": 125.9973,
        "meta_ephemeris_type": 0,
        "meta_classification_type": "U",
        "meta_norad_cat_id": 29236,
        "meta_element_set_no": 999,
        "meta_rev_at_epoch": 7099,
        "meta_bstar": 0,
        "meta_mean_motion_dot": -1.06e-06,
        "meta_mean_motion_ddot": 0,
        "tle_line1": "1 29236U 06023A   25336.12667522 -.00000106  00000+0  00000+0 0  9999",
        "tle_line2": "2 29236   0.0261 223.3727 0002840  28.4644 125.9973  1.00270302 70997"
      },
      "geometry": {
        "type": "Point",
        "coordinates": [
          135.18811877730494,
          -0.020600003774315725
        ]
      }
    },
    {
      "type": "Feature",
      "properties": {
        "norad_id": 29494,
        "name": "DIRECTV 9S",
        "group": "intelsat",
        "lat": 1.4581690405127958,
        "lon": 132.97697996675657,
        "alt_km": 35792.09446082014,
        "timestamp": "2025-12-02T10:50:46.940975+00:00",
        "meta_object_name": "DIRECTV 9S",
        "meta_object_id": "2006-043A",
        "meta_epoch": "2025-12-02T03:01:47.299296",
        "meta_mean_motion": 1.00270709,
        "meta_eccentricity": 0.0003142,
        "meta_inclination": 1.9104,
        "meta_ra_of_asc_node": 83.323,
        "meta_arg_of_pericenter": 165.9727,
        "meta_mean_anomaly": 126.1868,
        "meta_ephemeris_type": 0,
        "meta_classification_type": "U",
        "meta_norad_cat_id": 29494,
        "meta_element_set_no": 999,
        "meta_rev_at_epoch": 4940,
        "meta_bstar": 0,
        "meta_mean_motion_dot": -9.2e-07,
        "meta_mean_motion_ddot": 0,
        "tle_line1": "1 29494U 06043A   25336.12624189 -.00000092  00000+0  00000+0 0  9993",
        "tle_line2": "2 29494   1.9104  83.3230 0003142 165.9727 126.1868  1.00270709 49406"
      },
      "geometry": {
        "type": "Point",
        "coordinates": [
          132.97697996675657,
          1.4581690405127958
        ]
      }
    }
  ]
}